[{"OBJECT_NAME":"KUZGTU 1 (RS47S)","OBJECT_ID":"2023-091AV","EPOCH":"2026-03-09T22:22:51.965760","MEAN_MOTION":15.27481352,"ECCENTRICITY":0.0012896,"INCLINATION":97.5178,"RA_OF_ASC_NODE":132.5224,"ARG_OF_PERICENTER":89.3666,"MEAN_ANOMALY":270.9051,"EPHEMERIS_TYPE":0,"CLASSIFICATION_TYPE":"U","NORAD_CAT_ID":57217,"ELEMENT_SET_NO":999,"REV_AT_EPOCH":14921,"BSTAR":0.00057711473,"MEAN_MOTION_DOT":0.00015496,"MEAN_MOTION_DDOT":0},{"OBJECT_NAME":"STARLINK-30176","OBJECT_ID":"2023-107W","EPOCH":"2026-03-09T02:52:57.165312","MEAN_MOTION":15.26730149,"ECCENTRICITY":0.00017376,"INCLINATION":43.0011,"RA_OF_ASC_NODE":338.9988,"ARG_OF_PERICENTER":274.2479,"MEAN_ANOMALY":85.8174,"EPHEMERIS_TYPE":0,"CLASSIFICATION_TYPE":"U","NORAD_CAT_ID":57477,"ELEMENT_SET_NO":999,"REV_AT_EPOCH":14506,"BSTAR":0.0011458381,"MEAN_MOTION_DOT":0.00030594,"MEAN_MOTION_DDOT":0}]
